[{"OBJECT_NAME":"GEESAT-2 11","OBJECT_ID":"2024-023L","EPOCH":"2026-03-09T21:59:16.445184","MEAN_MOTION":14.82910612,"ECCENTRICITY":0.00193128,"INCLINATION":49.9984,"RA_OF_ASC_NODE":93.6107,"ARG_OF_PERICENTER":92.0553,"MEAN_ANOMALY":268.2597,"EPHEMERIS_TYPE":0,"CLASSIFICATION_TYPE":"U","NORAD_CAT_ID":58915,"ELEMENT_SET_NO":999,"REV_AT_EPOCH":11418,"BSTAR":0.00034984273,"MEAN_MOTION_DOT":2.647e-5,"MEAN_MOTION_DDOT":0},{"OBJECT_NAME":"FENGYUN 1C DEB","OBJECT_ID":"1999-025CZV","EPOCH":"2026-03-07T07:47:36.128544","MEAN_MOTION":14.79534889,"ECCENTRICITY":0.00380344,"INCLINATION":99.5723,"RA_OF_ASC_NODE":250.9292,"ARG_OF_PERICENTER":252.8564,"MEAN_ANOMALY":230.4728,"EPHEMERIS_TYPE":0,"CLASSIFICATION_TYPE":"U","NORAD_CAT_ID":32409,"ELEMENT_SET_NO":999,"REV_AT_EPOCH":60088,"BSTAR":0.0037809327,"MEAN_MOTION_DOT":0.00028679,"MEAN_MOTION_DDOT":0}]
